{"spkid": "50395336", "covariance": {"data": [["2.031619105059065E-13", "-4.586194875865852E-13", "-1.233797310356113E-10", "4.791843524471179E-11", "-1.50893952380399E-10", "1.414148938853013E-11"], ["-4.586194875865852E-13", "1.035297085853125E-12", "2.785946851419336E-10", "-1.082205668603915E-10", "3.407124411724849E-10", "-3.193443103671931E-11"], ["-1.233797310356113E-10", "2.785946851419336E-10", "8.074053845466299E-8", "-3.199344779574205E-8", "9.743358756632538E-8", "-9.351288206152759E-9"], ["4.791843524471179E-11", "-1.082205668603915E-10", "-3.199344779574205E-8", "1.712199835815882E-8", "-4.281379202025486E-8", "4.350636671374851E-9"], ["-1.50893952380399E-10", "3.407124411724849E-10", "9.743358756632538E-8", "-4.281379202025486E-8", "1.221841997890189E-7", "-1.189460771698843E-8"], ["1.414148938853013E-11", "-3.193443103671931E-11", "-9.351288206152759E-9", "4.350636671374851E-9", "-1.189460771698843E-8", "1.273801252181301E-9"]], "elements": [{"name": "e", "sigma": 4.50734856102683e-07, "title": "eccentricity", "value": ".5824963550340414", "units": null, "label": "e"}, {"label": "q", "title": "perihelion distance", "value": ".943749378422222", "units": "au", "sigma": 1.01749549672376e-06, "name": "q"}, {"name": "tp", "sigma": 0.000284148796328021, "title": "time of perihelion passage", "value": "2459295.635459119662", "units": "TDB", "label": "tp"}, {"label": "node", "name": "om", "sigma": 0.000130851054096476, "title": "longitude of the ascending node", "value": "13.95450477143311", "units": "deg"}, {"name": "w", "sigma": 0.000349548565708714, "title": "argument of perihelion", "value": "312.0685579730205", "units": "deg", "label": "peri"}, {"label": "i", "title": "inclination", "value": "5.64740536203421", "units": "deg", "sigma": 3.56903523684104e-05, "name": "i"}], "labels": ["e", "q", "tp", "node", "peri", "i"], "epoch": "2458924.5"}, "elements": [{"name": "e", "sigma": "4.6108E-7", "units": null, "title": "eccentricity", "value": ".5838126001809847", "label": "e"}, {"label": "a", "title": "semi-major axis", "value": "2.259944354088171", "units": "au", "name": "a", "sigma": "1.6776E-8"}, {"units": "au", "value": ".94056036446362", "title": "perihelion distance", "name": "q", "sigma": "1.0354E-6", "label": "q"}, {"label": "i", "name": "i", "sigma": "3.5688E-5", "units": "deg", "title": "inclination; angle with respect to x-y ecliptic plane", "value": "5.658618490981064"}, {"label": "node", "value": "13.62753834439851", "title": "longitude of the ascending node", "units": "deg", "name": "om", "sigma": ".00012862"}, {"name": "w", "sigma": ".00034602", "title": "argument of perihelion", "value": "312.3834946157361", "units": "deg", "label": "peri"}, {"label": "M", "units": "deg", "title": "mean anomaly", "value": "192.0030441667048", "sigma": "7.7763E-5", "name": "ma"}, {"name": "tp", "sigma": ".0002624", "value": "2461779.587188657209", "title": "time of perihelion passage", "units": "TDB", "label": "tp"}, {"sigma": "1.3818E-5", "name": "per", "value": "1240.923604136394", "title": "sidereal orbital period", "units": "d", "label": "period"}, {"units": "deg/d", "title": "mean motion", "value": ".2901064971284332", "sigma": "3.2303E-9", "name": "n", "label": "n"}, {"sigma": "2.657E-8", "name": "ad", "units": "au", "title": "aphelion distance", "value": "3.579328343712722", "label": "Q"}], "epoch": "2461200.5"}